[{"OBJECT_NAME":"JILIN-1 GAOFEN 2A","OBJECT_ID":"2019-075A","EPOCH":"2026-03-04T04:18:30.343968","MEAN_MOTION":15.36185265,"ECCENTRICITY":0.0007834,"INCLINATION":97.502,"RA_OF_ASC_NODE":144.74,"ARG_OF_PERICENTER":102.1444,"MEAN_ANOMALY":258.0678,"EPHEMERIS_TYPE":0,"CLASSIFICATION_TYPE":"U","NORAD_CAT_ID":44777,"ELEMENT_SET_NO":999,"REV_AT_EPOCH":34874,"BSTAR":0.00073123,"MEAN_MOTION_DOT":0.00025781,"MEAN_MOTION_DDOT":0},{"OBJECT_NAME":"NINGXIA-1 1","OBJECT_ID":"2019-076A","EPOCH":"2026-03-04T03:31:38.644320","MEAN_MOTION":14.02023273,"ECCENTRICITY":0.00113,"INCLINATION":45.0065,"RA_OF_ASC_NODE":289.2547,"ARG_OF_PERICENTER":17.0738,"MEAN_ANOMALY":343.0475,"EPHEMERIS_TYPE":0,"CLASSIFICATION_TYPE":"U","NORAD_CAT_ID":44779,"ELEMENT_SET_NO":999,"REV_AT_EPOCH":32311,"BSTAR":0.00010977,"MEAN_MOTION_DOT":3.9e-7,"MEAN_MOTION_DDOT":0},{"OBJECT_NAME":"NINGXIA-1 5","OBJECT_ID":"2019-076E","EPOCH":"2026-03-04T02:09:35.917920","MEAN_MOTION":14.02006532,"ECCENTRICITY":0.0011266,"INCLINATION":45.006,"RA_OF_ASC_NODE":288.8645,"ARG_OF_PERICENTER":5.2808,"MEAN_ANOMALY":354.8143,"EPHEMERIS_TYPE":0,"CLASSIFICATION_TYPE":"U","NORAD_CAT_ID":44783,"ELEMENT_SET_NO":999,"REV_AT_EPOCH":32302,"BSTAR":1.4275e-5,"MEAN_MOTION_DOT":-1.08e-6,"MEAN_MOTION_DDOT":0},{"OBJECT_NAME":"KL-ALPHA A","OBJECT_ID":"2019-077A","EPOCH":"2026-03-04T04:38:11.194368","MEAN_MOTION":13.56031357,"ECCENTRICITY":0.001281,"INCLINATION":88.9142,"RA_OF_ASC_NODE":234.0708,"ARG_OF_PERICENTER":60.3447,"MEAN_ANOMALY":299.898,"EPHEMERIS_TYPE":0,"CLASSIFICATION_TYPE":"U","NORAD_CAT_ID":44785,"ELEMENT_SET_NO":999,"REV_AT_EPOCH":31150,"BSTAR":3.3619e-5,"MEAN_MOTION_DOT":3.6e-7,"MEAN_MOTION_DDOT":0},{"OBJECT_NAME":"CARTOSAT-3","OBJECT_ID":"2019-081A","EPOCH":"2026-03-04T04:05:06.791136","MEAN_MOTION":15.19336199,"ECCENTRICITY":0.0013526,"INCLINATION":97.4438,"RA_OF_ASC_NODE":126.6588,"ARG_OF_PERICENTER":157.0623,"MEAN_ANOMALY":203.1218,"EPHEMERIS_TYPE":0,"CLASSIFICATION_TYPE":"U","NORAD_CAT_ID":44804,"ELEMENT_SET_NO":999,"REV_AT_EPOCH":34752,"BSTAR":0.00031002,"MEAN_MOTION_DOT":6.498e-5,"MEAN_MOTION_DDOT":0},{"OBJECT_NAME":"JILIN-1 GAOFEN 2B","OBJECT_ID":"2019-086A","EPOCH":"2026-03-04T03:37:34.289184","MEAN_MOTION":15.19344783,"ECCENTRICITY":0.0013474,"INCLINATION":97.4976,"RA_OF_ASC_NODE":135.8606,"ARG_OF_PERICENTER":330.6389,"MEAN_ANOMALY":29.4086,"EPHEMERIS_TYPE":0,"CLASSIFICATION_TYPE":"U","NORAD_CAT_ID":44836,"ELEMENT_SET_NO":999,"REV_AT_EPOCH":34453,"BSTAR":0.00051385,"MEAN_MOTION_DOT":0.00010823,"MEAN_MOTION_DDOT":0},{"OBJECT_NAME":"ANGELS","OBJECT_ID":"2019-092D","EPOCH":"2026-03-04T02:28:15.527136","MEAN_MOTION":15.78154467,"ECCENTRICITY":0.0002534,"INCLINATION":97.4212,"RA_OF_ASC_NODE":277.6772,"ARG_OF_PERICENTER":216.7672,"MEAN_ANOMALY":143.3421,"EPHEMERIS_TYPE":0,"CLASSIFICATION_TYPE":"U","NORAD_CAT_ID":44876,"ELEMENT_SET_NO":999,"REV_AT_EPOCH":34574,"BSTAR":0.0014534,"MEAN_MOTION_DOT":0.00254209,"MEAN_MOTION_DDOT":0},{"OBJECT_NAME":"TIANQIN 1 (CAS-6)","OBJECT_ID":"2019-093A","EPOCH":"2026-03-04T05:16:22.227744","MEAN_MOTION":14.94840931,"ECCENTRICITY":0.0011924,"INCLINATION":97.7842,"RA_OF_ASC_NODE":147.8567,"ARG_OF_PERICENTER":48.275,"MEAN_ANOMALY":311.9488,"EPHEMERIS_TYPE":0,"CLASSIFICATION_TYPE":"U","NORAD_CAT_ID":44879,"ELEMENT_SET_NO":999,"REV_AT_EPOCH":33636,"BSTAR":0.00043151,"MEAN_MOTION_DOT":4.648e-5,"MEAN_MOTION_DDOT":0},{"OBJECT_NAME":"ETRSS-1","OBJECT_ID":"2019-093B","EPOCH":"2026-03-04T04:29:00.991392","MEAN_MOTION":14.95183193,"ECCENTRICITY":0.0012486,"INCLINATION":97.7862,"RA_OF_ASC_NODE":148.1992,"ARG_OF_PERICENTER":50.7897,"MEAN_ANOMALY":309.443,"EPHEMERIS_TYPE":0,"CLASSIFICATION_TYPE":"U","NORAD_CAT_ID":44880,"ELEMENT_SET_NO":999,"REV_AT_EPOCH":33636,"BSTAR":0.00061465,"MEAN_MOTION_DOT":6.707e-5,"MEAN_MOTION_DDOT":0},{"OBJECT_NAME":"TIANYAN 01","OBJECT_ID":"2019-093C","EPOCH":"2026-03-04T03:58:07.203360","MEAN_MOTION":14.86327322,"ECCENTRICITY":0.001503,"INCLINATION":97.7627,"RA_OF_ASC_NODE":137.9343,"ARG_OF_PERICENTER":74.3115,"MEAN_ANOMALY":285.9758,"EPHEMERIS_TYPE":0,"CLASSIFICATION_TYPE":"U","NORAD_CAT_ID":44881,"ELEMENT_SET_NO":999,"REV_AT_EPOCH":33581,"BSTAR":0.00019524,"MEAN_MOTION_DOT":1.67e-5,"MEAN_MOTION_DDOT":0},{"OBJECT_NAME":"TIANYAN 02","OBJECT_ID":"2019-093D","EPOCH":"2026-03-04T05:41:47.765760","MEAN_MOTION":15.03746799,"ECCENTRICITY":0.0014374,"INCLINATION":97.7923,"RA_OF_ASC_NODE":157.1612,"ARG_OF_PERICENTER":25.2935,"MEAN_ANOMALY":334.8991,"EPHEMERIS_TYPE":0,"CLASSIFICATION_TYPE":"U","NORAD_CAT_ID":44882,"ELEMENT_SET_NO":999,"REV_AT_EPOCH":33683,"BSTAR":0.00088052,"MEAN_MOTION_DOT":0.00012061,"MEAN_MOTION_DDOT":0},{"OBJECT_NAME":"CBERS 4A","OBJECT_ID":"2019-093E","EPOCH":"2026-03-04T04:58:56.358336","MEAN_MOTION":14.81557084,"ECCENTRICITY":0.0002491,"INCLINATION":97.761,"RA_OF_ASC_NODE":133.7805,"ARG_OF_PERICENTER":132.9044,"MEAN_ANOMALY":227.2378,"EPHEMERIS_TYPE":0,"CLASSIFICATION_TYPE":"U","NORAD_CAT_ID":44883,"ELEMENT_SET_NO":999,"REV_AT_EPOCH":33553,"BSTAR":0.00015593,"MEAN_MOTION_DOT":1.173e-5,"MEAN_MOTION_DDOT":0},{"OBJECT_NAME":"WEILAI 1R","OBJECT_ID":"2019-093F","EPOCH":"2026-03-04T04:51:07.363584","MEAN_MOTION":14.99673639,"ECCENTRICITY":0.0011976,"INCLINATION":97.7948,"RA_OF_ASC_NODE":152.9926,"ARG_OF_PERICENTER":42.9854,"MEAN_ANOMALY":317.2302,"EPHEMERIS_TYPE":0,"CLASSIFICATION_TYPE":"U","NORAD_CAT_ID":44884,"ELEMENT_SET_NO":999,"REV_AT_EPOCH":33668,"BSTAR":0.00072306,"MEAN_MOTION_DOT":8.874e-5,"MEAN_MOTION_DDOT":0},{"OBJECT_NAME":"FLORIPASAT-1","OBJECT_ID":"2019-093G","EPOCH":"2026-03-04T04:33:33.637824","MEAN_MOTION":15.02614364,"ECCENTRICITY":0.0012929,"INCLINATION":97.7927,"RA_OF_ASC_NODE":156.7706,"ARG_OF_PERICENTER":69.3359,"MEAN_ANOMALY":290.9251,"EPHEMERIS_TYPE":0,"CLASSIFICATION_TYPE":"U","NORAD_CAT_ID":44885,"ELEMENT_SET_NO":999,"REV_AT_EPOCH":33687,"BSTAR":0.0007125,"MEAN_MOTION_DOT":9.451e-5,"MEAN_MOTION_DDOT":0},{"OBJECT_NAME":"SHUNTIAN","OBJECT_ID":"2019-093H","EPOCH":"2026-03-04T04:26:28.915296","MEAN_MOTION":14.9456396,"ECCENTRICITY":0.0012871,"INCLINATION":97.8023,"RA_OF_ASC_NODE":151.9323,"ARG_OF_PERICENTER":59.6787,"MEAN_ANOMALY":300.5705,"EPHEMERIS_TYPE":0,"CLASSIFICATION_TYPE":"U","NORAD_CAT_ID":44886,"ELEMENT_SET_NO":999,"REV_AT_EPOCH":33649,"BSTAR":0.00049279,"MEAN_MOTION_DOT":5.281e-5,"MEAN_MOTION_DDOT":0},{"OBJECT_NAME":"2019-093L","OBJECT_ID":"2019-093L","EPOCH":"2026-03-04T04:27:23.464800","MEAN_MOTION":14.93897325,"ECCENTRICITY":0.0012943,"INCLINATION":97.7626,"RA_OF_ASC_NODE":142.7129,"ARG_OF_PERICENTER":46.6504,"MEAN_ANOMALY":313.5792,"EPHEMERIS_TYPE":0,"CLASSIFICATION_TYPE":"U","NORAD_CAT_ID":44889,"ELEMENT_SET_NO":999,"REV_AT_EPOCH":33612,"BSTAR":0.00046363,"MEAN_MOTION_DOT":4.881e-5,"MEAN_MOTION_DDOT":0},{"OBJECT_NAME":"ELEKTRO-L 3","OBJECT_ID":"2019-095A","EPOCH":"2026-03-04T02:25:01.698240","MEAN_MOTION":1.00270485,"ECCENTRICITY":0.0001616,"INCLINATION":0.0462,"RA_OF_ASC_NODE":309.8649,"ARG_OF_PERICENTER":23.2921,"MEAN_ANOMALY":300.9071,"EPHEMERIS_TYPE":0,"CLASSIFICATION_TYPE":"U","NORAD_CAT_ID":44903,"ELEMENT_SET_NO":999,"REV_AT_EPOCH":2265,"BSTAR":0,"MEAN_MOTION_DOT":-1.08e-6,"MEAN_MOTION_DDOT":0},{"OBJECT_NAME":"GONETS-M 14","OBJECT_ID":"2019-096A","EPOCH":"2026-03-04T05:44:46.783104","MEAN_MOTION":12.42867637,"ECCENTRICITY":0.001346,"INCLINATION":82.5274,"RA_OF_ASC_NODE":149.7048,"ARG_OF_PERICENTER":28.3589,"MEAN_ANOMALY":331.822,"EPHEMERIS_TYPE":0,"CLASSIFICATION_TYPE":"U","NORAD_CAT_ID":44905,"ELEMENT_SET_NO":999,"REV_AT_EPOCH":28064,"BSTAR":0.0012206,"MEAN_MOTION_DOT":1.79e-6,"MEAN_MOTION_DDOT":0},{"OBJECT_NAME":"GONETS-M 15","OBJECT_ID":"2019-096B","EPOCH":"2026-03-04T04:31:20.260416","MEAN_MOTION":12.42867732,"ECCENTRICITY":0.0015857,"INCLINATION":82.5293,"RA_OF_ASC_NODE":150.1808,"ARG_OF_PERICENTER":49.8697,"MEAN_ANOMALY":310.377,"EPHEMERIS_TYPE":0,"CLASSIFICATION_TYPE":"U","NORAD_CAT_ID":44906,"ELEMENT_SET_NO":999,"REV_AT_EPOCH":28060,"BSTAR":0.0013725,"MEAN_MOTION_DOT":2.0e-6,"MEAN_MOTION_DDOT":0},{"OBJECT_NAME":"GONETS-M 16","OBJECT_ID":"2019-096C","EPOCH":"2026-03-04T05:11:37.294368","MEAN_MOTION":12.42888397,"ECCENTRICITY":0.0012202,"INCLINATION":82.5238,"RA_OF_ASC_NODE":149.1659,"ARG_OF_PERICENTER":90.008,"MEAN_ANOMALY":270.2398,"EPHEMERIS_TYPE":0,"CLASSIFICATION_TYPE":"U","NORAD_CAT_ID":44907,"ELEMENT_SET_NO":999,"REV_AT_EPOCH":28059,"BSTAR":0.0013893,"MEAN_MOTION_DOT":2.02e-6,"MEAN_MOTION_DDOT":0},{"OBJECT_NAME":"RS-44 & BREEZE-KM R/B","OBJECT_ID":"2019-096E","EPOCH":"2026-03-04T00:13:25.299840","MEAN_MOTION":12.79747404,"ECCENTRICITY":0.0218152,"INCLINATION":82.5191,"RA_OF_ASC_NODE":49.5898,"ARG_OF_PERICENTER":30.5711,"MEAN_ANOMALY":330.7895,"EPHEMERIS_TYPE":0,"CLASSIFICATION_TYPE":"U","NORAD_CAT_ID":44909,"ELEMENT_SET_NO":999,"REV_AT_EPOCH":28889,"BSTAR":-1.4901e-5,"MEAN_MOTION_DOT":8.0e-8,"MEAN_MOTION_DDOT":0},{"OBJECT_NAME":"JILIN-1 KUANFU 01","OBJECT_ID":"2020-003A","EPOCH":"2026-03-04T03:32:55.053024","MEAN_MOTION":15.10026193,"ECCENTRICITY":0.0008547,"INCLINATION":97.5112,"RA_OF_ASC_NODE":139.169,"ARG_OF_PERICENTER":308.2544,"MEAN_ANOMALY":51.7916,"EPHEMERIS_TYPE":0,"CLASSIFICATION_TYPE":"U","NORAD_CAT_ID":45016,"ELEMENT_SET_NO":999,"REV_AT_EPOCH":33947,"BSTAR":0.0003658,"MEAN_MOTION_DOT":5.89e-5,"MEAN_MOTION_DDOT":0},{"OBJECT_NAME":"XINGYUN-2 01","OBJECT_ID":"2020-028A","EPOCH":"2026-03-04T03:37:47.981856","MEAN_MOTION":15.11272863,"ECCENTRICITY":0.0008451,"INCLINATION":97.4831,"RA_OF_ASC_NODE":57.6947,"ARG_OF_PERICENTER":194.7681,"MEAN_ANOMALY":165.3304,"EPHEMERIS_TYPE":0,"CLASSIFICATION_TYPE":"U","NORAD_CAT_ID":45602,"ELEMENT_SET_NO":999,"REV_AT_EPOCH":31897,"BSTAR":0.0001028,"MEAN_MOTION_DOT":1.667e-5,"MEAN_MOTION_DDOT":0},{"OBJECT_NAME":"XINGYUN-2 02","OBJECT_ID":"2020-028B","EPOCH":"2026-03-04T04:16:52.134816","MEAN_MOTION":15.11039303,"ECCENTRICITY":0.0009406,"INCLINATION":97.5094,"RA_OF_ASC_NODE":71.0374,"ARG_OF_PERICENTER":274.1536,"MEAN_ANOMALY":85.8618,"EPHEMERIS_TYPE":0,"CLASSIFICATION_TYPE":"U","NORAD_CAT_ID":45603,"ELEMENT_SET_NO":999,"REV_AT_EPOCH":31897,"BSTAR":0.00011089,"MEAN_MOTION_DOT":1.791e-5,"MEAN_MOTION_DDOT":0}]
